ONEWEB-0492             
1 54114U 22138B   25058.69837263  .00000046  00000+0  83349-4 0  9995
2 54114  87.9181  39.2801 0002066  80.9454 279.1912 13.19725385114256
ONEWEB-0495             
1 54115U 22138C   25058.67625879  .00000089  00000+0  18922-3 0  9993
2 54115  87.9182  39.2960 0002609  91.8945 268.2487 13.19727566114230
ONEWEB-0497             
1 54116U 22138D   25058.68887852 -.00000156  00000+0 -42192-3 0  9999
2 54116  87.9183  39.2708 0002497  83.5570 276.5847 13.19726369114220
ONEWEB-0499             
1 54117U 22138E   25058.89896438  .00000088  00000+0  18640-3 0  9996
2 54117  87.9182  39.2413 0001889  97.7901 262.3446 13.19723532114263
ONEWEB-0500             
1 54118U 22138F   25058.67467498 -.00000045  00000+0 -14567-3 0  9992
2 54118  87.9179  39.2740 0001937  83.5196 276.6157 13.19723051114247
ONEWEB-0501             
1 54119U 22138G   25058.70469160  .00000026  00000+0  32542-4 0  9996
2 54119  87.9175  39.2631 0002304  92.3307 267.8089 13.19725319114227
ONEWEB-0502             
1 54120U 22138H   25058.69047661  .00000021  00000+0  19701-4 0  9991
2 54120  87.9174  39.2516 0002070  93.3221 266.8149 13.19725611114249
ONEWEB-0503             
1 54121U 22138J   25058.90686842  .00000024  00000+0  28841-4 0  9994
2 54121  87.9174  39.2139 0001664  93.7040 266.4283 13.19724522114269
